QZS-1-(MICHIBIKI-1)-----
1 37158U 10045A   19072.62606427 -.00000187  00000-0  00000+0 0  9992
2 37158  41.2528 150.1736 0749228 269.9663 109.5075  1.00303692 31122
QZS-2--(MICHIBIKI-2)----
1 42738U 17028A   19072.38128524 -.00000135  00000-0  00000+0 0  9993
2 42738  43.7583 280.8427 0743142 270.6682 256.4221  1.00265137  6530
QZS-3-(MICHIBIKI-3)-----
1 42917U 17048A   19072.49593677 -.00000354  00000-0  00000+0 0  9994
2 42917   0.0564 219.5315 0001426 124.1232 132.7188  1.00273423  5775
QZS-4-(MICHIBIKI-4)-----
1 42965U 17062A   19072.53712687 -.00000291  00000-0  00000+0 0  9992
2 42965  40.7213  17.7270 0750089 269.7957 214.2829  1.00289361  5219
